NORAD_CAT_ID,OBJECT_NAME,OBJECT_TYPE,EPOCH,MEAN_MOTION,ECCENTRICITY,INCLINATION,RA_OF_ASC_NODE,ARG_OF_PERICENTER,MEAN_ANOMALY,BSTAR,MEAN_MOTION_DOT,MEAN_MOTION_DDOT,TLE_LINE0,TLE_LINE1,TLE_LINE2,SEMIMAJOR_AXIS,PERIOD,APOGEE,PERIGEE,DECAYED
53141.0,STARLINK-4103,PAYLOAD,2022-08-18 14:00:01,15.51039153,0.0001255,53.2172,249.2881,74.1944,231.9613,-0.019479,-0.0104731,0.0,0 STARLINK-4103,1 53141U 22083K   22230.58334491 -.01047310  00000-0 -19479-1 0  9994,2 53141  53.2172 249.2881 0001255  74.1944 231.9613 15.51039153  1304,6791.828,92.841,414.545,412.84,0.0
53141.0,STARLINK-4103,PAYLOAD,2022-08-18 22:00:00,15.501772400000002,0.0001203,53.2173,247.6918,84.2698,283.7365,-0.0072751,-0.00397189,0.0,0 STARLINK-4103,1 53141U 22083K   22230.91667824 -.00397189  00000-0 -72751-2 0  9994,2 53141  53.2173 247.6918 0001203  84.2698 283.7365 15.50177240  5727,6794.345,92.893,417.027,415.393,0.0
53141.0,STARLINK-4103,PAYLOAD,2022-08-19 04:00:01,15.4988267,0.0001255,53.2177,246.4976,77.6934,246.2367,7.4339e-05,3.769e-05,0.0,0 STARLINK-4103,1 53141U 22083K   22231.16668981  .00003769  00000-0  74339-4 0  9999,2 53141  53.2177 246.4976 0001255  77.6934 246.2367 15.49882670  5766,6795.206,92.91,417.924,416.218,0.0
53141.0,STARLINK-4103,PAYLOAD,2022-08-19 14:00:01,15.499237099999998,0.0001450999999999,53.2156,244.4985,41.5072,88.5626,-0.00033218,-0.00019284,0.0,0 STARLINK-4103,1 53141U 22083K   22231.58334491 -.00019284  00000-0 -33218-3 0  9992,2 53141  53.2156 244.4985 0001451  41.5072  88.5626 15.49923710  5836,6795.0859999999975,92.908,417.937,415.965,0.0
53141.0,STARLINK-4103,PAYLOAD,2022-08-19 20:00:01,15.49896448,0.0001305,53.2157,243.3024,47.2578,38.5096,-0.00037679,-0.00021785,0.0,0 STARLINK-4103,1 53141U 22083K   22231.83334491 -.00021785  00000-0 -37679-3 0  9994,2 53141  53.2157 243.3024 0001305  47.2578  38.5096 15.49896448  5878,6795.166,92.909,417.917,416.144,0.0
53141.0,STARLINK-4103,PAYLOAD,2022-08-19 22:00:00,15.49899663,0.000132,53.2154,242.9037,50.5243,140.4737,-0.00075551,-0.00043117,0.0,0 STARLINK-4103,1 53141U 22083K   22231.91667824 -.00043117  00000-0 -75551-3 0  9996,2 53141  53.2154 242.9037 0001320  50.5243 140.4737 15.49899663  1308,6795.156,92.909,417.918,416.124,0.0
53141.0,STARLINK-4103,PAYLOAD,2022-08-20 14:00:01,15.49857428,0.0001603,53.2147,239.7196,48.0786,264.7006,-9.6143e-06,-9.97e-06,0.0,0 STARLINK-4103,1 53141U 22083K   22232.58334491 -.00000997  00000-0 -96143-5 0  9992,2 53141  53.2147 239.7196 0001603  48.0786 264.7006 15.49857428  1300,6795.28,92.912,418.234,416.055,0.0
53141.0,STARLINK-4103,PAYLOAD,2022-08-20 22:00:00,15.49832945,0.0001395999999999,53.2154,238.1265,58.3391,315.3244,0.0010469,0.00059308,0.0,0 STARLINK-4103,1 53141U 22083K   22232.91667824  .00059308  00000-0  10469-2 0  9990,2 53141  53.2154 238.1265 0001396  58.3391 315.3244 15.49832945  1307,6795.351,92.913,418.165,416.268,0.0
53141.0,STARLINK-4103,PAYLOAD,2022-08-21 04:00:00,15.499116099999998,0.0001323,53.2164,236.9353,53.9057,275.3927,-0.001812,-0.00102059,0.0,0 STARLINK-4103,1 53141U 22083K   22233.16667824 -.00102059  00000-0 -18120-2 0  9994,2 53141  53.2164 236.9353 0001323  53.9057 275.3927 15.49911610  6071,6795.121,92.909,417.885,416.087,0.0
53141.0,STARLINK-4103,PAYLOAD,2022-08-21 14:00:01,15.49842815,0.0001343,53.2169,234.9493,57.0676,78.347,-0.021694,-0.01110875,0.0,0 STARLINK-4103,1 53141U 22083K   22233.58334491 -.01110875  00000-0 -21694-1 0  9996,2 53141  53.2169 234.9493 0001343  57.0676  78.3470 15.49842815  1308,6795.321999999999,92.913,418.1,416.275,0.0
53141.0,STARLINK-4103,PAYLOAD,2022-08-21 20:00:01,15.49241093,0.0001423,53.2174,233.7555,45.2165,45.5692,-0.022182,-0.01111754,0.0,0 STARLINK-4103,1 53141U 22083K   22233.83334491 -.01111754  00000-0 -22182-1 0  9994,2 53141  53.2174 233.7555 0001423  45.2165  45.5692 15.49241093  6185,6797.081999999999,92.949,419.914,417.98,0.0
53141.0,STARLINK-4103,PAYLOAD,2022-08-21 22:00:00,15.49042504,0.000148,53.2172,233.3576,53.3898,142.3982,-0.02242,-0.01115428,0.0,0 STARLINK-4103,1 53141U 22083K   22233.91667824 -.01115428  00000-0 -22420-1 0  9999,2 53141  53.2172 233.3576 0001480  53.3898 142.3982 15.49042504  1301,6797.663000000001,92.961,420.534,418.522,0.0
53141.0,STARLINK-4103,PAYLOAD,2022-08-22 12:00:00,15.47635696,0.0001440999999999,53.2172,230.5806,55.149,153.9703,-0.023459,-0.01127291,0.0,0 STARLINK-4103,1 53141U 22083K   22234.50001157 -.01127291  00000-0 -23459-1 0  9990,2 53141  53.2172 230.5806 0001441  55.1490 153.9703 15.47635696  1308,6801.781999999997,93.045,424.627,422.666,0.0
53141.0,STARLINK-4103,PAYLOAD,2022-08-22 22:00:00,15.46631476,0.0001315999999999,53.2173,228.5969,47.8599,323.2609,-0.024297,-0.01127313,0.0,0 STARLINK-4103,1 53141U 22083K   22234.91667824 -.01127313  00000-0 -24297-1 0  9990,2 53141  53.2173 228.5969 0001316  47.8599 323.2609 15.46631476  1303,6804.726,93.106,427.486,425.695,0.0
53141.0,STARLINK-4103,PAYLOAD,2022-08-23 04:00:00,15.46030523,0.0001504,53.2176,227.4106,41.2133,282.3824,-0.024834,-0.01128404,0.0,0 STARLINK-4103,1 53141U 22083K   22235.16667824 -.01128404  00000-0 -24834-1 0  9997,2 53141  53.2176 227.4106 0001504  41.2133 282.3824 15.46030523  6381,6806.489000000001,93.142,429.377,427.33,0.0
53141.0,STARLINK-4103,PAYLOAD,2022-08-23 14:00:01,15.45027301,0.0001495,53.2173,225.4341,48.6479,74.5355,-0.025717,-0.01128737,0.0,0 STARLINK-4103,1 53141U 22083K   22235.58334491 -.01128737  00000-0 -25717-1 0  9994,2 53141  53.2173 225.4341 0001495  48.6479  74.5355 15.45027301  1306,6809.435,93.202,432.318,430.282,0.0
53141.0,STARLINK-4103,PAYLOAD,2022-08-23 20:00:01,15.44423739,0.0001496,53.2174,224.2482,41.2834,32.9304,-0.026216,-0.01127197,0.0,0 STARLINK-4103,1 53141U 22083K   22235.83334491 -.01127197  00000-0 -26216-1 0  9996,2 53141  53.2174 224.2482 0001496  41.2834  32.9304 15.44423739  6496,6811.209,93.239,434.093,432.055,0.0
53141.0,STARLINK-4103,PAYLOAD,2022-08-23 22:00:01,15.44224584,0.0001592,53.2175,223.8535,48.8011,129.0319,-0.026451,-0.01129405,0.0,0 STARLINK-4103,1 53141U 22083K   22235.91668981 -.01129405  00000-0 -26451-1 0  9994,2 53141  53.2175 223.8535 0001592  48.8011 129.0319 15.44224584  1304,6811.794,93.251,434.744,432.575,0.0
53141.0,STARLINK-4103,PAYLOAD,2022-08-24 14:00:01,15.42620107,0.0001405,53.2172,220.7021,51.2984,232.7443,-0.027988,-0.01131358,0.0,0 STARLINK-4103,1 53141U 22083K   22236.58334491 -.01131358  00000-0 -27988-1 0  9990,2 53141  53.2172 220.7021 0001405  51.2984 232.7443 15.42620107  1306,6816.517,93.348,439.34,437.424,0.0
53141.0,STARLINK-4103,PAYLOAD,2022-08-24 22:00:00,15.41813641,0.0001416999999999,53.2175,219.1274,45.4185,290.3162,-0.0285829999999999,-0.01124998,0.0,0 STARLINK-4103,1 53141U 22083K   22236.91667824 -.01124998  00000-0 -28583-1 0  9990,2 53141  53.2175 219.1274 0001417  45.4185 290.3162 15.41813641  1306,6818.894,93.397,441.725,439.792,0.0
53141.0,STARLINK-4103,PAYLOAD,2022-08-25 12:00:00,15.40411807,0.0001307,53.2171,216.3801,50.1501,283.7187,-0.0300839999999999,-0.01129383,0.0,0 STARLINK-4103,1 53141U 22083K   22237.50001157 -.01129383  00000-0 -30084-1 0  9999,2 53141  53.2171 216.3801 0001307  50.1501 283.7187 15.40411807  6743,6823.03,93.481,445.787,444.003,0.0
53141.0,STARLINK-4103,PAYLOAD,2022-08-25 14:00:01,15.40209382,0.0001434,53.2172,215.9874,47.3762,28.8436,-0.0302209999999999,-0.01127147,0.0,0 STARLINK-4103,1 53141U 22083K   22237.58334491 -.01127147  00000-0 -30221-1 0  9996,2 53141  53.2172 215.9874 0001434  47.3762  28.8436 15.40209382  1302,6823.628000000002,93.494,446.471,444.514,0.0
53141.0,STARLINK-4103,PAYLOAD,2022-08-25 22:00:00,15.39406025,0.0001564,53.2175,214.4184,48.6501,76.3661,-0.030997,-0.01125845,0.0,0 STARLINK-4103,1 53141U 22083K   22237.91667824 -.01125845  00000-0 -30997-1 0  9995,2 53141  53.2175 214.4184 0001564  48.6501  76.3661 15.39406025  1301,6826.002,93.543,448.934,446.799,0.0
53141.0,STARLINK-4103,PAYLOAD,2022-08-26 06:00:00,15.38603178,0.0001736,53.2173,212.8546,45.8744,126.9717,-0.031831,-0.01125954,0.0,0 STARLINK-4103,1 53141U 22083K   22238.25001157 -.01125954  00000-0 -31831-1 0  9993,2 53141  53.2173 212.8546 0001736  45.8744 126.9717 15.38603178  6869,6828.376,93.591,451.426,449.056,0.0
53141.0,STARLINK-4103,PAYLOAD,2022-08-26 14:00:01,15.37801528,0.0001579,53.2173,211.2897,49.7254,170.0514,-0.032755,-0.01128297,0.0,0 STARLINK-4103,1 53141U 22083K   22238.58335648 -.01128297  00000-0 -32755-1 0  9993,2 53141  53.2173 211.2897 0001579  49.7254 170.0514 15.37801528  1302,6830.749,93.64,453.692,451.535,0.0
53141.0,STARLINK-4103,PAYLOAD,2022-08-26 22:00:00,15.36996569,0.0001467,53.2174,209.7266,54.2523,211.3626,-0.033476,-0.0112363,0.0,0 STARLINK-4103,1 53141U 22083K   22238.91667824 -.01123630  00000-0 -33476-1 0  9991,2 53141  53.2174 209.7266 0001467  54.2523 211.3626 15.36996569  1303,6833.134,93.689,456.001,453.996,0.0
53141.0,STARLINK-4103,PAYLOAD,2022-08-27 14:00:01,15.35392913,0.0001478,53.2174,206.6093,41.0492,313.4733,-0.0354149999999999,-0.01128138,0.0,0 STARLINK-4103,1 53141U 22083K   22239.58334491 -.01128138  00000-0 -35415-1 0  9999,2 53141  53.2174 206.6093 0001478  41.0492 313.4733 15.35392913  1303,6837.891,93.787,460.766,458.745,0.0
53141.0,STARLINK-4103,PAYLOAD,2022-08-27 20:00:01,15.34787528,0.0001545,53.2172,205.4408,43.5555,253.3143,-0.035927,-0.01122891,0.0,0 STARLINK-4103,1 53141U 22083K   22239.83334491 -.01122891  00000-0 -35927-1 0  9995,2 53141  53.2172 205.4408 0001545  43.5555 253.3143 15.34787528  7100,6839.689,93.824,462.61,460.497,0.0
53141.0,STARLINK-4103,PAYLOAD,2022-08-27 22:00:00,15.34586934,0.000162,53.2174,205.0521,38.359,359.1717,-0.036132,-0.01122145,0.0,0 STARLINK-4103,1 53141U 22083K   22239.91667824 -.01122145  00000-0 -36132-1 0  9994,2 53141  53.2174 205.0521 0001620  38.3590 359.1717 15.34586934  1305,6840.285,93.836,463.258,461.042,0.0
